OBJECT_NAME,OBJECT_ID,EPOCH,MEAN_MOTION,ECCENTRICITY,INCLINATION,RA_OF_ASC_NODE,ARG_OF_PERICENTER,MEAN_ANOMALY,EPHEMERIS_TYPE,CLASSIFICATION_TYPE,NORAD_CAT_ID,ELEMENT_SET_NO,REV_AT_EPOCH,BSTAR,MEAN_MOTION_DOT,MEAN_MOTION_DDOT
BEIDOU-2 M4,2012-018B,2026-07-13T10:22:03.822816,1.86229496,.00120872,55.6338,303.2030,272.4400,87.4432,0,U,38251,999,9643,0,-.68E-6,0
ARIRANG-3 (KOMPSAT-3),2012-025B,2026-07-14T03:08:38.318784,14.62228519,.0006285,98.1184,152.1285,41.7001,318.4678,0,U,38338,999,75528,.47038E-4,.19E-5,0
METOP-B,2012-049A,2026-07-14T03:35:01.387104,14.21446205,.0001075,98.6491,246.1087,261.8835,98.2221,0,U,38771,999,71709,.44067E-4,.53E-6,0
SJ-9A,2012-056A,2026-07-14T04:12:31.073760,14.85527506,.0025884,97.6728,166.1542,165.1046,195.0938,0,U,38860,999,70359,.6678E-4,.527E-5,0
COSMOS 2484 (RODNIK-S 6),2013-001C,2026-07-14T04:36:18.406944,12.42940427,.0025697,82.4994,205.1030,337.8783,22.1186,0,U,39059,999,61191,.32271E-3,.55E-6,0
SARAL,2013-009A,2026-07-14T03:14:14.474400,14.32895660,.0001635,98.5554,21.3613,169.2578,190.8641,0,U,39086,999,69946,.32375E-4,.45E-6,0
STRAND-1,2013-009E,2026-07-14T01:39:32.139936,14.37178494,.0009358,98.3933,14.6434,144.1848,215.9968,0,U,39090,999,70092,.59984E-4,.136E-5,0
BRITE-AUSTRIA,2013-009F,2026-07-14T00:34:34.527936,14.36552238,.0010697,98.4007,13.7972,153.9873,206.1854,0,U,39091,999,70090,.42766E-4,.83E-6,0
GAOFEN-1,2013-018A,2026-07-14T04:04:56.500032,14.76518852,.0017018,97.9094,266.6878,174.4187,185.7216,0,U,39150,999,71222,.82819E-4,.527E-5,0
NEE-01 PEGASO,2013-018B,2026-07-14T04:40:18.782112,14.93785831,.0013644,98.1251,340.2439,77.3400,282.9343,0,U,39151,999,71473,.10814E-3,.1086E-4,0
PROBA-V,2013-021A,2026-07-13T21:32:30.912864,14.23603313,.0005295,98.3605,172.1880,63.1260,297.0460,0,U,39159,999,68491,.26506E-4,.19E-6,0
ARIRANG-5 (KOMPSAT-5),2013-042A,2026-07-13T23:15:10.169280,15.04525151,.0005588,97.6209,21.2936,62.3144,297.8649,0,U,39227,999,70788,.59206E-4,.769E-5,0
GONETS-M 5,2013-048A,2026-07-14T03:53:03.883200,12.42892694,.0017311,82.4848,326.5645,151.8033,208.3987,0,U,39249,999,58223,.52424E-4,.17E-6,0
GONETS-M 7,2013-048C,2026-07-14T02:59:01.062240,12.42915192,.0018082,82.4914,329.5242,153.1591,207.0428,0,U,39251,999,58218,-.63944E-3,-.79E-6,0
FENGYUN 3C,2013-052A,2026-07-14T04:22:37.524000,14.15760601,.0013713,98.4997,167.8202,309.1054,50.8900,0,U,39260,999,66238,.32546E-4,.22E-6,0
CASSIOPE,2013-055A,2026-07-14T04:04:19.774848,15.27378323,.0283037,80.9125,33.8905,331.3754,27.2181,0,U,39265,999,67178,.23506E-3,.21914E-3,-.52811E-6
APRIZESAT 7,2013-066A,2026-07-14T02:55:22.480608,14.91617848,.0037173,97.7722,147.9572,120.7358,239.7531,0,U,39416,999,68524,.47577E-4,.426E-5,0
ZACUBE-1 (TSHEPISOSAT),2013-066B,2026-07-13T22:26:19.749120,15.01325644,.0043958,97.8009,157.4041,159.2498,201.0523,0,U,39417,999,68474,.10618E-3,.133E-4,0
APRIZESAT 8,2013-066K,2026-07-14T02:42:33.645024,14.87695568,.0045395,97.8230,142.2076,195.4638,164.5194,0,U,39425,999,68367,.47412E-4,.382E-5,0
TRITON-1,2013-066M,2026-07-14T04:08:18.950784,14.81792558,.0090482,97.8227,104.3636,145.3973,215.3174,0,U,39427,999,67808,.12352E-3,.99E-5,0
